SPINLAUNCH_L_00001541-01
1 48416U 26143QS  26070.40780093  .00000000  00000+0  00000-0 0  9994
2 48416  55.0000 163.3613 0000000   0.0000 293.4454 14.18626974    18
SPINLAUNCH_L_00001542-01
1 48417U 25047GS  26070.40780093  .00000000  00000+0  00000-0 0  9997
2 48417  55.0000 163.6639 0000000   0.0000 294.6555 14.18626974    15
SPINLAUNCH_L_00001543-01
1 48418U 25054DI  26070.40780093  .00000000  00000+0  00000-0 0  9996
2 48418  55.0000 163.9664 0000000   0.0000 295.8655 14.18626974    11
SPINLAUNCH_L_00001544-01
1 48419U 24210RY  26070.40780093  .00000000  00000+0  00000-0 0  9990
2 48419  55.0000 164.2689 0000000   0.0000 297.0756 14.18626974    19
SPINLAUNCH_L_00001545-01
1 48420U 22967NN  26070.40780093  .00000000  00000+0  00000-0 0  9999
2 48420  55.0000 164.5714 0000000   0.0000 298.2857 14.18626974    18
SPINLAUNCH_L_00001546-01
1 48421U 26239NO  26070.40780093  .00000000  00000+0  00000-0 0  9996
2 48421  55.0000 164.8739 0000000   0.0000 299.4958 14.18626974    14
SPINLAUNCH_L_00001547-01
1 48422U 23100ZM  26070.40780093  .00000000  00000+0  00000-0 0  9991
2 48422  55.0000 165.1765 0000000   0.0000 300.7059 14.18626974    16
SPINLAUNCH_L_00001548-01
1 48423U 26470YM  26070.40780093  .00000000  00000+0  00000-0 0  9995
2 48423  55.0000 165.4790 0000000   0.0000 301.9160 14.18626974    14
SPINLAUNCH_L_00001549-01
1 48424U 24233LB  26070.40780093  .00000000  00000+0  00000-0 0  9991
2 48424  55.0000 165.7815 0000000   0.0000 303.1261 14.18626974    12
SPINLAUNCH_L_00001550-01
1 48425U 24859RQ  26070.40780093  .00000000  00000+0  00000-0 0  9996
2 48425  55.0000 166.0840 0000000   0.0000 304.3361 14.18626974    19
SPINLAUNCH_L_00001551-01
1 48426U 25423WP  26070.40780093  .00000000  00000+0  00000-0 0  9995
2 48426  55.0000 166.3866 0000000   0.0000 305.5462 14.18626974    16
SPINLAUNCH_L_00001552-01
1 48427U 26296LZ  26070.40780093  .00000000  00000+0  00000-0 0  9995
2 48427  55.0000 166.6891 0000000   0.0000 306.7563 14.18626974    13
SPINLAUNCH_L_00001553-01
1 48428U 23661BJ  26070.40780093  .00000000  00000+0  00000-0 0  9999
2 48428  55.0000 166.9916 0000000   0.0000 307.9664 14.18626974    10
SPINLAUNCH_L_00001554-01
1 48429U 24880LF  26070.40780093  .00000000  00000+0  00000-0 0  9994
2 48429  55.0000 167.2941 0000000   0.0000 309.1765 14.18626974    19
SPINLAUNCH_L_00001555-01
1 48430U 23830AQ  26070.40780093  .00000000  00000+0  00000-0 0  9990
2 48430  55.0000 167.5966 0000000   0.0000 310.3866 14.18626974    17
SPINLAUNCH_L_00001556-01
1 48431U 22721GW  26070.40780093  .00000000  00000+0  00000-0 0  9999
2 48431  55.0000 167.8992 0000000   0.0000 311.5966 14.18626974    14
SPINLAUNCH_L_00001557-01
1 48432U 23198MI  26070.40780093  .00000000  00000+0  00000-0 0  9999
2 48432  55.0000 168.2017 0000000   0.0000 312.8067 14.18626974    14
SPINLAUNCH_L_00001558-01
1 48433U 24839JK  26070.40780093  .00000000  00000+0  00000-0 0  9993
2 48433  55.0000 168.5042 0000000   0.0000 314.0168 14.18626974    12
SPINLAUNCH_L_00001559-01
1 48434U 22332VR  26070.40780093  .00000000  00000+0  00000-0 0  9990
2 48434  55.0000 168.8067 0000000   0.0000 315.2269 14.18626974    18
SPINLAUNCH_L_00001560-01
1 48435U 25677V   26070.40780093  .00000000  00000+0  00000-0 0  9996
2 48435  55.0000 169.1092 0000000   0.0000 316.4370 14.18626974    17
SPINLAUNCH_L_00001561-01
1 48436U 23655LS  26070.40780093  .00000000  00000+0  00000-0 0  9991
2 48436  55.0000 169.4118 0000000   0.0000 317.6471 14.18626974    15
SPINLAUNCH_L_00001562-01
1 48437U 25332FB  26070.40780093  .00000000  00000+0  00000-0 0  9996
2 48437  55.0000 169.7143 0000000   0.0000 318.8571 14.18626974    11
SPINLAUNCH_L_00001563-01
1 48438U 25794VJ  26070.40780093  .00000000  00000+0  00000-0 0  9999
2 48438  55.0000 170.0168 0000000   0.0000 320.0672 14.18626974    11
SPINLAUNCH_L_00001564-01
1 48439U 26564AH  26070.40780093  .00000000  00000+0  00000-0 0  9996
2 48439  55.0000 170.3193 0000000   0.0000 321.2773 14.18626974    18
SPINLAUNCH_L_00001565-01
1 48440U 26304FL  26070.40780093  .00000000  00000+0  00000-0 0  9990
2 48440  55.0000 170.6218 0000000   0.0000 322.4874 14.18626974    16
SPINLAUNCH_L_00001566-01
1 48441U 24178OU  26070.40780093  .00000000  00000+0  00000-0 0  9998
2 48441  55.0000 170.9244 0000000   0.0000 323.6975 14.18626974    14
SPINLAUNCH_L_00001567-01
1 48442U 22097IN  26070.40780093  .00000000  00000+0  00000-0 0  9997
2 48442  55.0000 171.2269 0000000   0.0000 324.9076 14.18626974    12
SPINLAUNCH_L_00001568-01
1 48443U 26357BL  26070.40780093  .00000000  00000+0  00000-0 0  9991
2 48443  55.0000 171.5294 0000000   0.0000 326.1176 14.18626974    19
SPINLAUNCH_L_00001569-01
1 48444U 24666CL  26070.40780093  .00000000  00000+0  00000-0 0  9993
2 48444  55.0000 171.8319 0000000   0.0000 327.3277 14.18626974    16
SPINLAUNCH_L_00001570-01
1 48445U 25969NJ  26070.40780093  .00000000  00000+0  00000-0 0  9991
2 48445  55.0000 172.1345 0000000   0.0000 328.5378 14.18626974    15
SPINLAUNCH_L_00001571-01
1 48446U 25178RO  26070.40780093  .00000000  00000+0  00000-0 0  9994
2 48446  55.0000 172.4370 0000000   0.0000 329.7479 14.18626974    12
SPINLAUNCH_L_00001572-01
1 48447U 26837FR  26070.40780093  .00000000  00000+0  00000-0 0  9998
2 48447  55.0000 172.7395 0000000   0.0000 330.9580 14.18626974    10
SPINLAUNCH_L_00001573-01
1 48448U 25907UD  26070.40780093  .00000000  00000+0  00000-0 0  9996
2 48448  55.0000 173.0420 0000000   0.0000 332.1681 14.18626974    10
SPINLAUNCH_L_00001574-01
1 48449U 23705UK  26070.40780093  .00000000  00000+0  00000-0 0  9991
2 48449  55.0000 173.3445 0000000   0.0000 333.3782 14.18626974    16
SPINLAUNCH_L_00001575-01
1 48450U 22816LL  26070.40780093  .00000000  00000+0  00000-0 0  9995
2 48450  55.0000 173.6471 0000000   0.0000 334.5882 14.18626974    14
SPINLAUNCH_L_00001576-01
1 48451U 23933NL  26070.40780093  .00000000  00000+0  00000-0 0  9997
2 48451  55.0000 173.9496 0000000   0.0000 335.7983 14.18626974    10
SPINLAUNCH_L_00001577-01
1 48452U 22434NS  26070.40780093  .00000000  00000+0  00000-0 0  9993
2 48452  55.0000 174.2521 0000000   0.0000 337.0084 14.18626974    11
SPINLAUNCH_L_00001578-01
1 48453U 26419IK  26070.40780093  .00000000  00000+0  00000-0 0  9991
2 48453  55.0000 174.5546 0000000   0.0000 338.2185 14.18626974    17
SPINLAUNCH_L_00001579-01
1 48454U 24847BE  26070.40780093  .00000000  00000+0  00000-0 0  9995
2 48454  55.0000 174.8571 0000000   0.0000 339.4286 14.18626974    14
SPINLAUNCH_L_00001580-01
1 48455U 23919IL  26070.40780093  .00000000  00000+0  00000-0 0  9995
2 48455  55.0000 175.1597 0000000   0.0000 340.6387 14.18626974    13
SPINLAUNCH_L_00001581-01
1 48456U 26849FA  26070.40780093  .00000000  00000+0  00000-0 0  9991
2 48456  55.0000 175.4622 0000000   0.0000 341.8487 14.18626974    10
SPINLAUNCH_L_00001582-01
1 48457U 24972GH  26070.40780093  .00000000  00000+0  00000-0 0  9997
2 48457  55.0000 175.7647 0000000   0.0000 343.0588 14.18626974    17
SPINLAUNCH_L_00001583-01
1 48458U 23871FU  26070.40780093  .00000000  00000+0  00000-0 0  9995
2 48458  55.0000 176.0672 0000000   0.0000 344.2689 14.18626974    15
SPINLAUNCH_L_00001584-01
1 48459U 24676BU  26070.40780093  .00000000  00000+0  00000-0 0  9990
2 48459  55.0000 176.3697 0000000   0.0000 345.4790 14.18626974    12
SPINLAUNCH_L_00001585-01
1 48460U 23256TV  26070.40780093  .00000000  00000+0  00000-0 0  9995
2 48460  55.0000 176.6723 0000000   0.0000 346.6891 14.18626974    12
SPINLAUNCH_L_00001586-01
1 48461U 24729CL  26070.40780093  .00000000  00000+0  00000-0 0  9992
2 48461  55.0000 176.9748 0000000   0.0000 347.8992 14.18626974    18
SPINLAUNCH_L_00001587-01
1 48462U 25324FB  26070.40780093  .00000000  00000+0  00000-0 0  9995
2 48462  55.0000 177.2773 0000000   0.0000 349.1092 14.18626974    17
SPINLAUNCH_L_00001588-01
1 48463U 24531RS  26070.40780093  .00000000  00000+0  00000-0 0  9995
2 48463  55.0000 177.5798 0000000   0.0000 350.3193 14.18626974    14
SPINLAUNCH_L_00001589-01
1 48464U 26973LF  26070.40780093  .00000000  00000+0  00000-0 0  9998
2 48464  55.0000 177.8824 0000000   0.0000 351.5294 14.18626974    13
SPINLAUNCH_L_00001590-01
1 48465U 23592NO  26070.40780093  .00000000  00000+0  00000-0 0  9993
2 48465  55.0000 178.1849 0000000   0.0000 352.7395 14.18626974    10
SPINLAUNCH_L_00001591-01
1 48466U 22413UY  26070.40780093  .00000000  00000+0  00000-0 0  9995
2 48466  55.0000 178.4874 0000000   0.0000 353.9496 14.18626974    17
SPINLAUNCH_L_00001592-01
1 48467U 25881QX  26070.40780093  .00000000  00000+0  00000-0 0  9998
2 48467  55.0000 178.7899 0000000   0.0000 355.1597 14.18626974    14
SPINLAUNCH_L_00001593-01
1 48468U 25244ZQ  26070.40780093  .00000000  00000+0  00000-0 0  9992
2 48468  55.0000 179.0924 0000000   0.0000 356.3697 14.18626974    12
SPINLAUNCH_L_00001594-01
1 48469U 25065AC  26070.40780093  .00000000  00000+0  00000-0 0  9994
2 48469  55.0000 179.3950 0000000   0.0000 357.5798 14.18626974    10
SPINLAUNCH_L_00001595-01
1 48470U 23081UK  26070.40780093  .00000000  00000+0  00000-0 0  9992
2 48470  55.0000 179.6975 0000000   0.0000 358.7899 14.18626974    17
SPINLAUNCH_L_00001596-01
1 48471U 25803LZ  26070.40780093  .00000000  00000+0  00000-0 0  9997
2 48471  55.0000 180.0000 0000000   0.0000   0.0000 14.18626974    14
SPINLAUNCH_L_00001597-01
1 48472U 22804HL  26070.40780093  .00000000  00000+0  00000-0 0  9996
2 48472  55.0000 180.3025 0000000   0.0000   1.2101 14.18626974    10
SPINLAUNCH_L_00001598-01
1 48473U 26485FG  26070.40780093  .00000000  00000+0  00000-0 0  9996
2 48473  55.0000 180.6050 0000000   0.0000   2.4202 14.18626974    17
SPINLAUNCH_L_00001599-01
1 48474U 23257OD  26070.40780093  .00000000  00000+0  00000-0 0  9991
2 48474  55.0000 180.9076 0000000   0.0000   3.6303 14.18626974    14
SPINLAUNCH_L_00001600-01
1 48475U 24698PZ  26070.40780093  .00000000  00000+0  00000-0 0  9992
2 48475  55.0000 181.2101 0000000   0.0000   4.8403 14.18626974    12
